COMMENT,ORIGINATOR,NORAD_CAT_ID,OBJECT_NAME,OBJECT_TYPE,CLASSIFICATION_TYPE,INTLDES,EPOCH,EPOCH_MICROSECONDS,MEAN_MOTION,ECCENTRICITY,INCLINATION,RA_OF_ASC_NODE,ARG_OF_PERICENTER,MEAN_ANOMALY,EPHEMERIS_TYPE,ELEMENT_SET_NO,REV_AT_EPOCH,BSTAR,MEAN_MOTION_DOT,MEAN_MOTION_DDOT,FILE,TLE_LINE0,TLE_LINE1,TLE_LINE2,OBJECT_ID,OBJECT_NUMBER,SEMIMAJOR_AXIS,PERIOD,APOGEE,PERIGEE,DECAYED
"GENERATED VIA SPACETRACK.ORG API","18 SPCS","56467","STARLINK-6055","PAYLOAD","U","23064V","2023-10-21 22:09:47","96928","14.98360596","0.0002936","70","157.5705","299.5333","60.5533","0","999","2545","-0.00029476","-0.00003611","0","4046563","0 STARLINK-6055","1 56467U 23064V   23294.92346177 -.00003611  00000-0 -29476-3 0  9996","2 56467  70.0000 157.5705 0002936 299.5333  60.5533 14.98360596 25450","2023-064V","56467","6950.098","96.105","574.004","569.923","0"
"GENERATED VIA SPACETRACK.ORG API","18 SPCS","56469","STARLINK-5518","PAYLOAD","U","23064X","2023-10-21 22:27:48","580416","14.98376205","0.0002401","70","157.6152","271.7221","88.3663","0","999","2545","-0.00047506","-0.00005763","0","4046563","0 STARLINK-5518","1 56469U 23064X   23294.93597894 -.00005763  00000-0 -47506-3 0  9997","2 56469  70.0000 157.6152 0002401 271.7221  88.3663 14.98376205 25450","2023-064X","56469","6950.050","96.104","573.584","570.246","0"
"GENERATED VIA SPACETRACK.ORG API","18 SPCS","55786","STARLINK-5823","PAYLOAD","U","23028AX","2023-10-21 22:29:08","515968","14.98337623","0.0003188","70","237.487","270.8056","89.2738","0","999","3674","0.000044694","0.0000044","0","4046563","0 STARLINK-5823","1 55786U 23028AX  23294.93690412  .00000440  00000-0  44694-4 0  9999","2 55786  70.0000 237.4870 0003188 270.8056  89.2738 14.98337623 36742","2023-028AX","55786","6950.169","96.107","574.250","569.819","0"
"GENERATED VIA SPACETRACK.ORG API","18 SPCS","55963","STARLINK-5924","PAYLOAD","U","23037BB","2023-10-21 22:30:34","562592","14.98810859","0.000343","70","297.3686","262.2182","97.8588","0","999","3419","-0.0050136","-0.00060151","0","4046563","0 STARLINK-5924","1 55963U 23037BB  23294.93790003 -.00060151  00000-0 -50136-2 0  9996","2 55963  70.0000 297.3686 0003430 262.2182  97.8588 14.98810859 34196","2023-037BB","55963","6948.706","96.076","572.955","568.188","0"
"GENERATED VIA SPACETRACK.ORG API","18 SPCS","56463","STARLINK-6051","PAYLOAD","U","23064R","2023-10-21 22:34:08","745600","14.98338302","0.0003073","70","177.4918","269.5999","90.4808","0","999","2496","0.00011529","0.00001283","0","4046563","0 STARLINK-6051","1 56463U 23064R   23294.94037900  .00001283  00000-0  11529-3 0  9996","2 56463  70.0000 177.4918 0003073 269.5999  90.4808 14.98338302 24963","2023-064R","56463","6950.167","96.106","574.168","569.896","0"
"GENERATED VIA SPACETRACK.ORG API","18 SPCS","55773","STARLINK-5833","PAYLOAD","U","23028AJ","2023-10-21 22:35:42","802368","14.98330404","0.0002881","70","257.3803","271.5427","88.5401","0","999","3625","0.00012371","0.00001383","0","4046563","0 STARLINK-5833","1 55773U 23028AJ  23294.94146762  .00001383  00000-0  12371-3 0  9993","2 55773  70.0000 257.3803 0002881 271.5427  88.5401 14.98330404 36259","2023-028AJ","55773","6950.192","96.107","574.059","570.054","0"
"GENERATED VIA SPACETRACK.ORG API","18 SPCS","55958","STARLINK-5928","PAYLOAD","U","23037AW","2023-10-21 22:42:21","291264","14.98690867","0.0003415","70","297.399","261.6653","98.4119","0","999","3419","-0.0042631","-0.00051067","0","4046563","0 STARLINK-5928","1 55958U 23037AW  23294.94607976 -.00051067  00000-0 -42631-2 0  9994","2 55958  70.0000 297.3990 0003415 261.6653  98.4119 14.98690867 34199","2023-037AW","55958","6949.077","96.084","573.315","568.569","0"
"GENERATED VIA SPACETRACK.ORG API","18 SPCS","55776","STARLINK-5810","PAYLOAD","U","23028AM","2023-10-22 01:05:41","511840","14.98316601","0.0002908","70","256.9386","266.1238","93.9589","0","999","3627","-0.000033098","-0.00000488","0","4046699","0 STARLINK-5810","1 55776U 23028AM  23295.04561935 -.00000488  00000-0 -33098-4 0  9998","2 55776  70.0000 256.9386 0002908 266.1238  93.9589 14.98316601 36275","2023-028AM","55776","6950.234","96.108","574.120","570.078","0"
"GENERATED VIA SPACETRACK.ORG API","18 SPCS","55786","STARLINK-5823","PAYLOAD","U","23028AX","2023-10-22 03:17:32","6400","14.98346398","0.0002972","70","236.9819","268.0047","92.0771","0","999","3676","0.00010215","0.00001127","0","4046717","0 STARLINK-5823","1 55786U 23028AX  23295.13717600  .00001127  00000-0  10215-3 0  9995","2 55786  70.0000 236.9819 0002972 268.0047  92.0771 14.98346398 36768","2023-028AX","55786","6950.142","96.106","574.073","569.942","0"
"GENERATED VIA SPACETRACK.ORG API","18 SPCS","55768","STARLINK-5583","PAYLOAD","U","23028AD","2023-10-22 03:47:54","534912","14.98344368","0.0002694","70","256.9319","262.3229","97.7624","0","999","3627","0.00017654","0.00002015","0","4046668","0 STARLINK-5583","1 55768U 23028AD  23295.15827008  .00002015  00000-0  17654-3 0  9992","2 55768  70.0000 256.9319 0002694 262.3229  97.7624 14.98344368 36275","2023-028AD","55768","6950.148","96.106","573.886","570.141","0"
"GENERATED VIA SPACETRACK.ORG API","18 SPCS","55629","STARLINK-5497","PAYLOAD","U","23021B","2023-10-22 04:41:39","254208","14.98342212","0.000288","70","236.8693","262.0055","98.0777","0","999","3775","0.0002268","0.00002615","0","4047011","0 STARLINK-5497","1 55629U 23021B   23295.19559322  .00002615  00000-0  22680-3 0  9997","2 55629  70.0000 236.8693 0002880 262.0055  98.0777 14.98342212 37757","2023-021B","55629","6950.155","96.106","574.022","570.018","0"
"GENERATED VIA SPACETRACK.ORG API","18 SPCS","55629","STARLINK-5497","PAYLOAD","U","23021B","2023-10-22 06:17:47","137632","14.98344091","0.0002886","70","236.701","261.6635","98.4196","0","999","3806","0.00024356","0.00002815","0","4047923","0 STARLINK-5497","1 55629U 23021B   23295.26235113  .00002815  00000-0  24356-3 0  9998","2 55629  70.0000 236.7010 0002886 261.6635  98.4196 14.98344091 38065","2023-021B","55629","6950.149","96.106","574.020","570.009","0"
"GENERATED VIA SPACETRACK.ORG API","18 SPCS","55778","STARLINK-5816","PAYLOAD","U","23028AP","2023-10-22 07:42:13","113504","14.98339432","0.0002749","70","256.2957","274.0596","86.0249","0","999","3631","0.0001632","0.00001855","0","4047296","0 STARLINK-5816","1 55778U 23028AP  23295.32098511  .00001855  00000-0  16320-3 0  9991","2 55778  70.0000 256.2957 0002749 274.0596  86.0249 14.98339432 36310","2023-028AP","55778","6950.164","96.106","573.939","570.118","0"
"GENERATED VIA SPACETRACK.ORG API","18 SPCS","55778","STARLINK-5816","PAYLOAD","U","23028AP","2023-10-22 07:42:13","113504","14.98339432","0.0002749","70","256.2957","274.0596","86.0249","0","999","3631","0.0001632","0.00001855","0","4047923","0 STARLINK-5816","1 55778U 23028AP  23295.32098511  .00001855  00000-0  16320-3 0  9991","2 55778  70.0000 256.2957 0002749 274.0596  86.0249 14.98339432 36310","2023-028AP","55778","6950.164","96.106","573.939","570.118","0"
"GENERATED VIA SPACETRACK.ORG API","18 SPCS","55956","STARLINK-5883","PAYLOAD","U","23037AU","2023-10-22 09:25:02","769888","14.98328081","0.0002382","70","296.1459","247.4699","112.6208","0","999","3426","0.000022155","0.00000171","0","4047923","0 STARLINK-5883","1 55956U 23037AU  23295.39239317  .00000171  00000-0  22155-4 0  9991","2 55956  70.0000 296.1459 0002382 247.4699 112.6208 14.98328081 34260","2023-037AU","55956","6950.199","96.107","573.719","570.408","0"
"GENERATED VIA SPACETRACK.ORG API","18 SPCS","56809","STARLINK-6040","PAYLOAD","U","23078AU","2023-10-22 11:32:46","780800","14.98336246","0.0003265","70","15.9377","262.0785","98.0004","0","999","2274","0.00022533","0.00002597","0","4047294","0 STARLINK-6040","1 56809U 23078AU  23295.48109700  .00002597  00000-0  22533-3 0  9999","2 56809  70.0000  15.9377 0003265 262.0785  98.0004 14.98336246 22747","2023-078AU","56809","6950.174","96.107","574.308","569.769","0"
"GENERATED VIA SPACETRACK.ORG API","18 SPCS","56810","STARLINK-6031","PAYLOAD","U","23078AV","2023-10-22 13:20:43","150272","14.98320858","0.0003149","70","15.7991","271.1979","88.8819","0","999","2249","0.000020832","0.00000155","0","4047923","0 STARLINK-6031","1 56810U 23078AV  23295.55605498  .00000155  00000-0  20832-4 0  9993","2 56810  70.0000  15.7991 0003149 271.1979  88.8819 14.98320858 22491","2023-078AV","56810","6950.221","96.108","574.275","569.898","0"
"GENERATED VIA SPACETRACK.ORG API","18 SPCS","56473","STARLINK-5486","PAYLOAD","U","23064AB","2023-10-22 13:47:05","854848","14.98321036","0.0002","70","155.8316","285.6585","74.4354","0","999","2555","0.00016888","0.00001922","0","4047923","0 STARLINK-5486","1 56473U 23064AB  23295.57437332  .00001922  00000-0  16888-3 0  9993","2 56473  70.0000 155.8316 0002000 285.6585  74.4354 14.98321036 25555","2023-064AB","56473","6950.221","96.108","573.476","570.696","0"
"GENERATED VIA SPACETRACK.ORG API","18 SPCS","55304","STARLINK-5318","PAYLOAD","U","23010AM","2023-10-22 14:33:28","551744","14.98320623","0.0003229","70","55.5309","269.7759","90.303","0","999","4309","0.000016322","0.00000102","0","4047923","0 STARLINK-5318","1 55304U 23010AM  23295.60658046  .00000102  00000-0  16322-4 0  9990","2 55304  70.0000  55.5309 0003229 269.7759  90.3030 14.98320623 43093","2023-010AM","55304","6950.222","96.108","574.331","569.843","0"
"GENERATED VIA SPACETRACK.ORG API","18 SPCS","56817","STARLINK-5982","PAYLOAD","U","23078BC","2023-10-22 14:50:49","709760","14.98347566","0.0002897","70","15.6147","265.4311","94.6518","0","999","2276","-0.00029586","-0.00003623","0","4048012","0 STARLINK-5982","1 56817U 23078BC  23295.61863090 -.00003623  00000-0 -29586-3 0  9990","2 56817  70.0000  15.6147 0002897 265.4311  94.6518 14.98347566 22761","2023-078BC","56817","6950.139","96.106","574.017","569.990","0"
